[{"OBJECT_NAME":"SL-8 R/B","OBJECT_ID":"1988-053B","EPOCH":"2026-04-27T04:39:43.970688","MEAN_MOTION":14.38942518,"ECCENTRICITY":0.00205517,"INCLINATION":74.0497,"RA_OF_ASC_NODE":23.0557,"ARG_OF_PERICENTER":194.4423,"MEAN_ANOMALY":278.1756,"EPHEMERIS_TYPE":0,"CLASSIFICATION_TYPE":"U","NORAD_CAT_ID":19257,"ELEMENT_SET_NO":999,"REV_AT_EPOCH":98357,"BSTAR":7.2682025e-5,"MEAN_MOTION_DOT":1.98e-6,"MEAN_MOTION_DDOT":0},{"OBJECT_NAME":"COSMOS 1975","OBJECT_ID":"1988-093A","EPOCH":"2026-04-27T07:17:26.185920","MEAN_MOTION":15.28668774,"ECCENTRICITY":0.00115658,"INCLINATION":82.5186,"RA_OF_ASC_NODE":68.8486,"ARG_OF_PERICENTER":10.1493,"MEAN_ANOMALY":349.9978,"EPHEMERIS_TYPE":0,"CLASSIFICATION_TYPE":"U","NORAD_CAT_ID":19573,"ELEMENT_SET_NO":999,"REV_AT_EPOCH":2683,"BSTAR":0.00028359401,"MEAN_MOTION_DOT":7.952e-5,"MEAN_MOTION_DDOT":0},{"OBJECT_NAME":"SL-14 R/B","OBJECT_ID":"1988-093B","EPOCH":"2026-04-27T02:30:29.752128","MEAN_MOTION":14.85704141,"ECCENTRICITY":0.00193363,"INCLINATION":82.5331,"RA_OF_ASC_NODE":356.6071,"ARG_OF_PERICENTER":235.6742,"MEAN_ANOMALY":276.7341,"EPHEMERIS_TYPE":0,"CLASSIFICATION_TYPE":"U","NORAD_CAT_ID":19574,"ELEMENT_SET_NO":999,"REV_AT_EPOCH":820,"BSTAR":3.9152404e-5,"MEAN_MOTION_DOT":3.65e-6,"MEAN_MOTION_DDOT":0},{"OBJECT_NAME":"SL-16 R/B","OBJECT_ID":"1988-102B","EPOCH":"2026-04-27T05:15:27.735264","MEAN_MOTION":14.16157365,"ECCENTRICITY":0.00162529,"INCLINATION":71.0005,"RA_OF_ASC_NODE":49.3822,"ARG_OF_PERICENTER":293.0508,"MEAN_ANOMALY":66.8902,"EPHEMERIS_TYPE":0,"CLASSIFICATION_TYPE":"U","NORAD_CAT_ID":19650,"ELEMENT_SET_NO":999,"REV_AT_EPOCH":93376,"BSTAR":2.8612895e-5,"MEAN_MOTION_DOT":9.0e-8,"MEAN_MOTION_DDOT":0},{"OBJECT_NAME":"INTERCOSMOS 24","OBJECT_ID":"1989-080A","EPOCH":"2026-04-27T06:12:27.173376","MEAN_MOTION":12.5960253,"ECCENTRICITY":0.11875475,"INCLINATION":82.6043,"RA_OF_ASC_NODE":72.7732,"ARG_OF_PERICENTER":180.0339,"MEAN_ANOMALY":180.0891,"EPHEMERIS_TYPE":0,"CLASSIFICATION_TYPE":"U","NORAD_CAT_ID":20261,"ELEMENT_SET_NO":999,"REV_AT_EPOCH":67291,"BSTAR":0.00012405782,"MEAN_MOTION_DOT":4.38e-6,"MEAN_MOTION_DDOT":0},{"OBJECT_NAME":"SL-14 R/B","OBJECT_ID":"1989-080C","EPOCH":"2026-04-27T02:58:09.433920","MEAN_MOTION":12.50529964,"ECCENTRICITY":0.12309785,"INCLINATION":82.5905,"RA_OF_ASC_NODE":142.1038,"ARG_OF_PERICENTER":74.1041,"MEAN_ANOMALY":299.2,"EPHEMERIS_TYPE":0,"CLASSIFICATION_TYPE":"U","NORAD_CAT_ID":20262,"ELEMENT_SET_NO":999,"REV_AT_EPOCH":66620,"BSTAR":9.73828e-5,"MEAN_MOTION_DOT":3.55e-6,"MEAN_MOTION_DDOT":0},{"OBJECT_NAME":"DELTA 1 R/B","OBJECT_ID":"1989-089B","EPOCH":"2026-04-27T02:38:17.723040","MEAN_MOTION":14.50697852,"ECCENTRICITY":0.00682286,"INCLINATION":97.0666,"RA_OF_ASC_NODE":316.8328,"ARG_OF_PERICENTER":330.7082,"MEAN_ANOMALY":29.0298,"EPHEMERIS_TYPE":0,"CLASSIFICATION_TYPE":"U","NORAD_CAT_ID":20323,"ELEMENT_SET_NO":999,"REV_AT_EPOCH":90275,"BSTAR":7.2832427e-5,"MEAN_MOTION_DOT":2.59e-6,"MEAN_MOTION_DDOT":0},{"OBJECT_NAME":"ARIANE 40 R/B","OBJECT_ID":"1990-005H","EPOCH":"2026-04-27T02:37:23.814624","MEAN_MOTION":14.39899676,"ECCENTRICITY":0.00111726,"INCLINATION":98.2995,"RA_OF_ASC_NODE":176.3049,"ARG_OF_PERICENTER":63.49,"MEAN_ANOMALY":296.7433,"EPHEMERIS_TYPE":0,"CLASSIFICATION_TYPE":"U","NORAD_CAT_ID":20443,"ELEMENT_SET_NO":999,"REV_AT_EPOCH":89977,"BSTAR":8.4413333e-5,"MEAN_MOTION_DOT":2.23e-6,"MEAN_MOTION_DDOT":0},{"OBJECT_NAME":"DELTA 2 R/B(1)","OBJECT_ID":"1990-008B","EPOCH":"2026-04-26T14:09:29.401632","MEAN_MOTION":15.62057127,"ECCENTRICITY":0.0073876,"INCLINATION":35.6013,"RA_OF_ASC_NODE":218.9831,"ARG_OF_PERICENTER":348.1433,"MEAN_ANOMALY":11.7565,"EPHEMERIS_TYPE":0,"CLASSIFICATION_TYPE":"U","NORAD_CAT_ID":20453,"ELEMENT_SET_NO":999,"REV_AT_EPOCH":93361,"BSTAR":0.00072886,"MEAN_MOTION_DOT":0.0007643,"MEAN_MOTION_DDOT":0},{"OBJECT_NAME":"COSMOS 2058","OBJECT_ID":"1990-010A","EPOCH":"2026-04-27T04:08:17.160576","MEAN_MOTION":15.11707575,"ECCENTRICITY":0.00099396,"INCLINATION":82.4694,"RA_OF_ASC_NODE":359.6595,"ARG_OF_PERICENTER":155.9155,"MEAN_ANOMALY":204.2542,"EPHEMERIS_TYPE":0,"CLASSIFICATION_TYPE":"U","NORAD_CAT_ID":20465,"ELEMENT_SET_NO":999,"REV_AT_EPOCH":94956,"BSTAR":0.00020169512,"MEAN_MOTION_DOT":3.466e-5,"MEAN_MOTION_DDOT":0},{"OBJECT_NAME":"SL-14 R/B","OBJECT_ID":"1990-010B","EPOCH":"2026-04-27T05:56:48.480576","MEAN_MOTION":14.83613552,"ECCENTRICITY":0.00208843,"INCLINATION":82.5041,"RA_OF_ASC_NODE":221.7757,"ARG_OF_PERICENTER":136.8951,"MEAN_ANOMALY":223.3904,"EPHEMERIS_TYPE":0,"CLASSIFICATION_TYPE":"U","NORAD_CAT_ID":20466,"ELEMENT_SET_NO":999,"REV_AT_EPOCH":93568,"BSTAR":5.3888585e-5,"MEAN_MOTION_DOT":4.7e-6,"MEAN_MOTION_DDOT":0},{"OBJECT_NAME":"SL-14 R/B","OBJECT_ID":"1990-018B","EPOCH":"2026-04-27T05:52:15.427200","MEAN_MOTION":14.8218559,"ECCENTRICITY":0.00147898,"INCLINATION":82.5228,"RA_OF_ASC_NODE":177.7217,"ARG_OF_PERICENTER":294.1146,"MEAN_ANOMALY":65.8521,"EPHEMERIS_TYPE":0,"CLASSIFICATION_TYPE":"U","NORAD_CAT_ID":20511,"ELEMENT_SET_NO":999,"REV_AT_EPOCH":92977,"BSTAR":4.0487669e-5,"MEAN_MOTION_DOT":3.46e-6,"MEAN_MOTION_DDOT":0},{"OBJECT_NAME":"HST","OBJECT_ID":"1990-037B","EPOCH":"2026-04-27T05:10:45.771456","MEAN_MOTION":15.30170094,"ECCENTRICITY":0.00016627,"INCLINATION":28.4746,"RA_OF_ASC_NODE":68.7822,"ARG_OF_PERICENTER":301.5243,"MEAN_ANOMALY":58.519,"EPHEMERIS_TYPE":0,"CLASSIFICATION_TYPE":"U","NORAD_CAT_ID":20580,"ELEMENT_SET_NO":999,"REV_AT_EPOCH":78075,"BSTAR":0.00026301973,"MEAN_MOTION_DOT":8.137e-5,"MEAN_MOTION_DDOT":0},{"OBJECT_NAME":"SL-16 R/B","OBJECT_ID":"1990-046B","EPOCH":"2026-04-27T04:36:02.992320","MEAN_MOTION":14.15015773,"ECCENTRICITY":0.00160065,"INCLINATION":70.999,"RA_OF_ASC_NODE":196.048,"ARG_OF_PERICENTER":235.1649,"MEAN_ANOMALY":124.7969,"EPHEMERIS_TYPE":0,"CLASSIFICATION_TYPE":"U","NORAD_CAT_ID":20625,"ELEMENT_SET_NO":999,"REV_AT_EPOCH":85525,"BSTAR":0.00010497598,"MEAN_MOTION_DOT":1.56e-6,"MEAN_MOTION_DDOT":0},{"OBJECT_NAME":"COSMOS 2084","OBJECT_ID":"1990-055A","EPOCH":"2026-04-27T06:23:38.263776","MEAN_MOTION":15.0591009,"ECCENTRICITY":0.00095057,"INCLINATION":62.7882,"RA_OF_ASC_NODE":169.8618,"ARG_OF_PERICENTER":211.2526,"MEAN_ANOMALY":148.8011,"EPHEMERIS_TYPE":0,"CLASSIFICATION_TYPE":"U","NORAD_CAT_ID":20663,"ELEMENT_SET_NO":999,"REV_AT_EPOCH":94363,"BSTAR":0.0001523777,"MEAN_MOTION_DOT":2.026e-5,"MEAN_MOTION_DDOT":0},{"OBJECT_NAME":"SL-6 R/B(2)","OBJECT_ID":"1990-055D","EPOCH":"2026-04-27T04:24:03.301056","MEAN_MOTION":15.03805099,"ECCENTRICITY":0.0032646,"INCLINATION":62.782,"RA_OF_ASC_NODE":88.9093,"ARG_OF_PERICENTER":357.1735,"MEAN_ANOMALY":2.9175,"EPHEMERIS_TYPE":0,"CLASSIFICATION_TYPE":"U","NORAD_CAT_ID":20666,"ELEMENT_SET_NO":999,"REV_AT_EPOCH":94548,"BSTAR":0.00022313035,"MEAN_MOTION_DOT":2.914e-5,"MEAN_MOTION_DDOT":0},{"OBJECT_NAME":"SL-8 R/B","OBJECT_ID":"1990-078B","EPOCH":"2026-04-27T06:30:38.236896","MEAN_MOTION":14.90448866,"ECCENTRICITY":0.03561063,"INCLINATION":82.9057,"RA_OF_ASC_NODE":207.5763,"ARG_OF_PERICENTER":209.8676,"MEAN_ANOMALY":148.1803,"EPHEMERIS_TYPE":0,"CLASSIFICATION_TYPE":"U","NORAD_CAT_ID":20775,"ELEMENT_SET_NO":999,"REV_AT_EPOCH":81653,"BSTAR":0.00075444972,"MEAN_MOTION_DOT":0.00025826,"MEAN_MOTION_DDOT":0}]
