SL-8 R/B                
1 19257U 88053B   26117.19425892  .00000198  00000+0  72682-4 0  9991
2 19257  74.0497  23.0557 0020551 194.4423 278.1756 14.38942518983572
COSMOS 1975             
1 19573U 88093A   26117.30377530  .00007952  00000+0  28359-3 0  9990
2 19573  82.5186  68.8486 0011565  10.1493 349.9978 15.28668774 26835
SL-14 R/B               
1 19574U 88093B   26117.10451102  .00000365  00000+0  39152-4 0  9992
2 19574  82.5331 356.6071 0019336 235.6742 276.7341 14.85704141  8204
SL-16 R/B               
1 19650U 88102B   26117.21907101  .00000009  00000+0  28613-4 0  9990
2 19650  71.0005  49.3822 0016252 293.0508  66.8902 14.16157365933765
INTERCOSMOS 24          
1 20261U 89080A   26117.25864784  .00000438  00000+0  12406-3 0  9997
2 20261  82.6043  72.7732 1187547 180.0339 180.0891 12.59602530672916
SL-14 R/B               
1 20262U 89080C   26117.12372030  .00000355  00000+0  97383-4 0  9998
2 20262  82.5905 142.1038 1230978  74.1041 299.2000 12.50529964666204
DELTA 1 R/B             
1 20323U 89089B   26117.10992735  .00000259  00000+0  72832-4 0  9998
2 20323  97.0666 316.8328 0068228 330.7082  29.0298 14.50697852902756
ARIANE 40 R/B           
1 20443U 90005H   26117.10930341  .00000223  00000+0  84413-4 0  9995
2 20443  98.2995 176.3049 0011172  63.4900 296.7433 14.39899676899777
DELTA 2 R/B(1)          
1 20453U 90008B   26116.58992363  .00076430  00000+0  72886-3 0  9995
2 20453  35.6013 218.9831 0073876 348.1433  11.7565 15.62057127933616
COSMOS 2058             
1 20465U 90010A   26117.17242084  .00003466  00000+0  20170-3 0  9993
2 20465  82.4694 359.6595 0009939 155.9155 204.2542 15.11707575949566
SL-14 R/B               
1 20466U 90010B   26117.24778334  .00000470  00000+0  53889-4 0  9990
2 20466  82.5041 221.7757 0020884 136.8951 223.3904 14.83613552935688
SL-14 R/B               
1 20511U 90018B   26117.24462300  .00000346  00000+0  40488-4 0  9995
2 20511  82.5228 177.7217 0014789 294.1146  65.8521 14.82185590929770
HST                     
1 20580U 90037B   26117.21580754  .00008137  00000+0  26302-3 0  9997
2 20580  28.4746  68.7822 0001662 301.5243  58.5190 15.30170094780759
SL-16 R/B               
1 20625U 90046B   26117.19170130  .00000156  00000+0  10498-3 0  9999
2 20625  70.9990 196.0480 0016006 235.1649 124.7969 14.15015773855259
COSMOS 2084             
1 20663U 90055A   26117.26641509  .00002026  00000+0  15238-3 0  9997
2 20663  62.7882 169.8618 0009505 211.2526 148.8011 15.05910090943637
SL-6 R/B(2)             
1 20666U 90055D   26117.18337154  .00002914  00000+0  22313-3 0  9997
2 20666  62.7820  88.9093 0032646 357.1735   2.9175 15.03805099945480
SL-8 R/B                
1 20775U 90078B   26117.27127589  .00025826  00000+0  75445-3 0  9993
2 20775  82.9057 207.5763 0356106 209.8676 148.1803 14.90448866816531
